STARLINK-37613          
1 69211U 26115A   26173.49446670  .00035544  00000+0  65209-3 0  9998
2 69211  97.2837 190.6582 0001038  92.5471 267.5899 15.49196386  5483
STARLINK-37713          
1 69212U 26115B   26172.53728208 -.00252446  00000+0 -48567-2 0  9994
2 69212  97.2853 189.8185 0003163  23.5933 336.5462 15.48786039  5346
STARLINK-37716          
1 69213U 26115C   26173.83335648  .00027819  00000+0  77006-3 0  9994
2 69213  97.2853 191.1264 0001126 108.4299 267.6858 15.36956493  5596
STARLINK-37620          
1 69214U 26115D   26173.31498373  .00035565  00000+0  65301-3 0  9995
2 69214  97.2863 190.4437 0000648 111.3320 248.8000 15.49173224  5450
STARLINK-37700          
1 69215U 26115E   26173.48215476  .00048261  00000+0  88169-3 0  9999
2 69215  97.2830 190.5220 0000702 141.4649 218.6653 15.49251435  5477
STARLINK-37766          
1 69216U 26115F   26173.83335648  .00027339  00000+0  84725-3 0  9990
2 69216  97.2851 191.1700 0001640  78.3270  41.0188 15.33401261  5592
STARLINK-37763          
1 69217U 26115G   26173.29066951  .00044035  00000+0  77665-3 0  9996
2 69217  97.2866 190.6322 0008862 252.7382 107.2900 15.50234091  5465
STARLINK-37724          
1 69218U 26115H   26173.83335648  .00030479  00000+0  94381-3 0  9990
2 69218  97.2852 191.1847 0001305  99.3131  50.1240 15.33404063  5597
STARLINK-37758          
1 69219U 26115J   26173.83335648  .00030972  00000+0  95881-3 0  9995
2 69219  97.2857 191.1970 0001624  76.7712 102.6629 15.33409765  5596
STARLINK-37201          
1 69220U 26115K   26173.83335648  .00040793  00000+0  12585-2 0  9998
2 69220  97.2855 191.1911 0001328 126.9945  37.3200 15.33459110  5596
STARLINK-37728          
1 69221U 26115L   26173.83335648  .00026128  00000+0  80945-3 0  9991
2 69221  97.2856 191.2027 0001583  60.2810 134.0165 15.33420365  5596
STARLINK-37760          
1 69222U 26115M   26173.83335648  .00037393  00000+0  11540-2 0  9992
2 69222  97.2859 191.2099 0001178  89.4554 119.9869 15.33468372  5590
STARLINK-37759          
1 69223U 26115N   26173.35408565  .00025015  00000+0  45983-3 0  9996
2 69223  97.2859 190.6986 0001148  87.3943 272.7440 15.49208600  5478
STARLINK-37725          
1 69224U 26115P   26173.48123880 -.00415793  00000+0 -84228-2 0  9997
2 69224  97.2843 190.8313 0001395 359.6058   0.5191 15.47906962  5502
STARLINK-37770          
1 69225U 26115Q   26173.83335648  .00022744  00000+0  70489-3 0  9997
2 69225  97.2859 191.2270 0000977  47.6225 206.6779 15.33436321  5594
STARLINK-37736          
1 69226U 26115R   26173.83335648  .00026118  00000+0  80898-3 0  9992
2 69226  97.2860 191.2346 0001585  78.1011 191.2994 15.33427818  5598
STARLINK-37737          
1 69227U 26115S   26173.83335648  .00033422  00000+0  10331-2 0  9993
2 69227  97.2861 191.2480 0001729  70.8895 228.5003 15.33440883  5613
STARLINK-37618          
1 69228U 26115T   26173.03230383  .00049298  00000+0  90077-3 0  9990
2 69228  97.2863 190.3723 0001728 108.6760 251.4679 15.49241304  5423
STARLINK-37679          
1 69229U 26115U   26173.28808561  .00033608  00000+0  61572-3 0  9993
2 69229  97.2849 190.6340 0000540  73.5839 286.5472 15.49247266  5461
STARLINK-37746          
1 69230U 26115V   26173.49003159  .00052187  00000+0  95391-3 0  9997
2 69230  97.2844 190.8187 0000673 196.5881 163.5348 15.49217878  5494
STARLINK-37557          
1 69231U 26115W   26173.32116773  .00047087  00000+0  86197-3 0  9994
2 69231  97.2860 190.5904 0001710 100.3403 259.8041 15.49198631  5464
STARLINK-37745          
1 69232U 26115X   26173.83335648  .00032440  00000+0  10033-2 0  9997
2 69232  97.2861 191.2805 0001180 100.0871 274.3119 15.33429731  5594
STARLINK-37739          
1 69233U 26115Y   26173.49196994  .00060280  00000+0  10991-2 0  9995
2 69233  97.2840 190.8162 0000640 279.3326  80.7853 15.49252283  5494
STARLINK-37755          
1 69234U 26115Z   26173.84964170  .00269615  00000+0  18003-2 0  9999
2 69234  97.2840 191.5549 0006976 318.8306  41.2432 15.74535816  5575
TJS-24                  
1 69235U 26116A   26173.89082047 -.00000228  00000+0  00000+0 0  9999
2 69235   0.0356 125.1406 0000430 303.8464 253.0640  1.00271814   289
STARLINK-37665          
1 69238U 26117A   26173.67845438  .00177341  00000+0  83658-3 0  9994
2 69238  53.1567 216.0560 0000935  65.1150 294.9971 15.82057671  3840
STARLINK-37558          
1 69239U 26117B   26173.55115792  .00297233  00000+0  13768-2 0  9992
2 69239  53.1564 216.6837 0001052  79.4272 280.6870 15.82114873  3821
STARLINK-37680          
1 69240U 26117C   26173.29701526  .00326204  00000+0  15059-2 0  9997
2 69240  53.1562 217.9418 0000636 143.5205 216.5861 15.82109961  3781
STARLINK-37742          
1 69241U 26117D   26173.35840509  .00161590  00000+0  76418-3 0  9992
2 69241  53.1566 217.6146 0000930  37.6671 322.4417 15.82051873  3791
