OBJECT_NAME,OBJECT_ID,EPOCH,MEAN_MOTION,ECCENTRICITY,INCLINATION,RA_OF_ASC_NODE,ARG_OF_PERICENTER,MEAN_ANOMALY,EPHEMERIS_TYPE,CLASSIFICATION_TYPE,NORAD_CAT_ID,ELEMENT_SET_NO,REV_AT_EPOCH,BSTAR,MEAN_MOTION_DOT,MEAN_MOTION_DDOT
STARLINK-37613,2026-115A,2026-06-22T11:52:01.922880,15.49196386,.00010389,97.2837,190.6582,92.5471,267.5899,0,U,69211,999,548,.6520921E-3,.35544E-3,0
STARLINK-37713,2026-115B,2026-06-21T12:53:41.171712,15.48786039,.00031639,97.2853,189.8185,23.5933,336.5462,0,U,69212,999,534,-.48567078E-2,-.252446E-2,0
STARLINK-37716,2026-115C,2026-06-22T20:00:01.999872,15.36956493,.00011264,97.2853,191.1264,108.4299,267.6858,0,U,69213,999,559,.77005845E-3,.27819E-3,0
STARLINK-37620,2026-115D,2026-06-22T07:33:34.594272,15.49173224,.0000648,97.2863,190.4437,111.3320,248.8000,0,U,69214,999,545,.65301374E-3,.35565E-3,0
STARLINK-37700,2026-115E,2026-06-22T11:34:18.171264,15.49251435,.00007023,97.2830,190.5220,141.4649,218.6653,0,U,69215,999,547,.88168997E-3,.48261E-3,0
STARLINK-37766,2026-115F,2026-06-22T20:00:01.999872,15.33401261,.00016405,97.2851,191.1700,78.3270,41.0188,0,U,69216,999,559,.84725317E-3,.27339E-3,0
STARLINK-37763,2026-115G,2026-06-22T06:58:33.845664,15.50234091,.00088627,97.2866,190.6322,252.7382,107.2900,0,U,69217,999,546,.77665064E-3,.44035E-3,0
STARLINK-37724,2026-115H,2026-06-22T20:00:01.999872,15.33404063,.00013059,97.2852,191.1847,99.3131,50.1240,0,U,69218,999,559,.94381167E-3,.30479E-3,0
STARLINK-37758,2026-115J,2026-06-22T20:00:01.999872,15.33409765,.00016249,97.2857,191.1970,76.7712,102.6629,0,U,69219,999,559,.95880928E-3,.30972E-3,0
STARLINK-37201,2026-115K,2026-06-22T20:00:01.999872,15.33459110,.00013289,97.2855,191.1911,126.9945,37.3200,0,U,69220,999,559,.12585381E-2,.40793E-3,0
STARLINK-37728,2026-115L,2026-06-22T20:00:01.999872,15.33420365,.00015839,97.2856,191.2027,60.2810,134.0165,0,U,69221,999,559,.80945315E-3,.26128E-3,0
STARLINK-37760,2026-115M,2026-06-22T20:00:01.999872,15.33468372,.00011783,97.2859,191.2099,89.4554,119.9869,0,U,69222,999,559,.11540072E-2,.37393E-3,0
STARLINK-37759,2026-115N,2026-06-22T08:29:53.000160,15.49208600,.00011489,97.2859,190.6986,87.3943,272.7440,0,U,69223,999,547,.45982622E-3,.25015E-3,0
STARLINK-37725,2026-115P,2026-06-22T11:32:59.032320,15.47906962,.00013955,97.2843,190.8313,359.6058,0.5191,0,U,69224,999,550,-.84228141E-2,-.415793E-2,0
STARLINK-37770,2026-115Q,2026-06-22T20:00:01.999872,15.33436321,.00009772,97.2859,191.2270,47.6225,206.6779,0,U,69225,999,559,.70488914E-3,.22744E-3,0
STARLINK-37736,2026-115R,2026-06-22T20:00:01.999872,15.33427818,.00015857,97.2860,191.2346,78.1011,191.2994,0,U,69226,999,559,.8089791E-3,.26118E-3,0
STARLINK-37737,2026-115S,2026-06-22T20:00:01.999872,15.33440883,.00017296,97.2861,191.2480,70.8895,228.5003,0,U,69227,999,561,.10331192E-2,.33422E-3,0
STARLINK-37618,2026-115T,2026-06-22T00:46:31.050912,15.49241304,.00017286,97.2863,190.3723,108.6760,251.4679,0,U,69228,999,542,.90076917E-3,.49298E-3,0
STARLINK-37679,2026-115U,2026-06-22T06:54:50.596704,15.49247266,.00005403,97.2849,190.6340,73.5839,286.5472,0,U,69229,999,546,.61571875E-3,.33608E-3,0
STARLINK-37746,2026-115V,2026-06-22T11:45:38.729376,15.49217878,.00006736,97.2844,190.8187,196.5881,163.5348,0,U,69230,999,549,.95391025E-3,.52187E-3,0
STARLINK-37557,2026-115W,2026-06-22T07:42:28.891872,15.49198631,.00017108,97.2860,190.5904,100.3403,259.8041,0,U,69231,999,546,.86196545E-3,.47087E-3,0
STARLINK-37745,2026-115X,2026-06-22T20:00:01.999872,15.33429731,.00011804,97.2861,191.2805,100.0871,274.3119,0,U,69232,999,559,.1003334E-2,.3244E-3,0
STARLINK-37739,2026-115Y,2026-06-22T11:48:26.202816,15.49252283,.00006402,97.2840,190.8162,279.3326,80.7853,0,U,69233,999,549,.10991315E-2,.6028E-3,0
STARLINK-37755,2026-115Z,2026-06-22T20:23:29.042880,15.74535816,.00069767,97.2840,191.5549,318.8306,41.2432,0,U,69234,999,557,.18003059E-2,.269615E-2,0
TJS-24,2026-116A,2026-06-22T21:22:46.888608,1.00271814,.00004308,0.0356,125.1406,303.8464,253.0640,0,U,69235,999,28,0,-.228E-5,0
STARLINK-37665,2026-117A,2026-06-22T16:16:58.458432,15.82057671,.00009356,53.1567,216.0560,65.1150,294.9971,0,U,69238,999,384,.83658253E-3,.177341E-2,0
STARLINK-37558,2026-117B,2026-06-22T13:13:40.044288,15.82114873,.00010525,53.1564,216.6837,79.4272,280.6870,0,U,69239,999,382,.1376831E-2,.297233E-2,0
STARLINK-37680,2026-117C,2026-06-22T07:07:42.118464,15.82109961,.00006368,53.1562,217.9418,143.5205,216.5861,0,U,69240,999,378,.15059114E-2,.326204E-2,0
STARLINK-37742,2026-117D,2026-06-22T08:36:06.199776,15.82051873,.00009307,53.1566,217.6146,37.6671,322.4417,0,U,69241,999,379,.76417724E-3,.16159E-2,0
